1 61991U 16053H   25265.83251356 -.00000227  00000-0  00000-0 0  9996
2 61991   0.9912 101.1408 0114750 241.3476  17.1340  1.02044259  3454
1 61991U 16053H   25266.81246398 -.00000267  00000-0  00000-0 0  9999
2 61991   0.9937 101.0834 0114832 241.3392  17.2017  1.02044558  3466
1 61991U 16053H   25266.81247256 -.00000267  00000-0  00000-0 0  9993
2 61991   0.9938 101.0887 0114825 241.3371  17.1987  1.02044474  3466
1 61991U 16053H   25267.79240902 -.00000301  00000-0  00000-0 0  9991
2 61991   0.9963 101.0303 0114924 241.3229  17.2725  1.02044760  3479
1 61991U 16053H   25267.79244501 -.00000301  00000-0  00000-0 0  9990
2 61991   0.9964 101.0378 0114814 241.3995  17.1906  1.02045306  3477
1 61991U 16053H   25268.77238522 -.00000328  00000-0  00000-0 0  9994
2 61991   0.9985 100.9880 0114849 241.4145  17.2269  1.02045409  3480
1 61991U 16053H   25268.77238703 -.00000328  00000-0  00000-0 0  9995
2 61991   0.9986 100.9910 0114847 241.4110  17.2273  1.02045294  3482
1 61991U 16053H   25269.04863128 -.00000334  00000-0  00000-0 0  9998
2 61991   0.9990 100.9515 0114881 241.4077 118.7536  1.02045268  3499
1 61991U 16053H   25270.02816242 -.00000348  00000-0  00000-0 0  9998
2 61991   1.0012 100.8985 0114924 241.4387 118.6272  1.02045255  3502
1 61991U 16053H   25270.02822177 -.00000348  00000-0  00000-0 0  9992
2 61991   1.0013 100.9179 0114899 241.4489 118.6176  1.02044763  3509
1 61991U 16053H   25271.00774754 -.00000351  00000-0  00000-0 0  9992
2 61991   1.0034 100.8476 0114972 241.4576 118.5294  1.02044935  3512
1 61991U 16053H   25271.98741851 -.00000344  00000-0  00000-0 0  9993
2 61991   1.0056 100.7971 0115054 241.4473 118.4907  1.02044536  3521
1 61991U 16053H   25272.96721218 -.00000326  00000-0  00000-0 0  9997
2 61991   1.0080 100.7511 0115116 241.4568 118.4711  1.02044053  3530
1 61991U 16053H   25273.94710981 -.00000299  00000-0  00000-0 0  9990
2 61991   1.0104 100.6985 0115243 241.4165 118.5436  1.02043369  3540
1 61991U 16053H   25274.92712774 -.00000264  00000-0  00000-0 0  9993
2 61991   1.0128 100.6494 0115314 241.3863 118.6446  1.02042474  3553
1 61991U 16053H   25274.92716583 -.00000264  00000-0  00000-0 0  9995
2 61991   1.0128 100.6625 0115275 241.4303 118.6001  1.02042341  3555
1 61991U 16053H   25275.90724820 -.00000222  00000-0  00000-0 0  9991
2 61991   1.0154 100.6086 0115385 241.3553 118.7724  1.02041688  3560
1 61991U 16053H   25275.90725122 -.00000222  00000-0  00000-0 0  9997
2 61991   1.0154 100.6095 0115382 241.3632 118.7643  1.02041626  3567
1 61991U 16053H   25275.90731349 -.00000222  00000-0  00000-0 0  9995
2 61991   1.0152 100.6331 0115341 241.3952 118.7318  1.02041686  3563
1 61991U 16053H   25278.84741293 -.00000083  00000-0  00000-0 0  9995
2 61991   1.0229 100.4489 0115632 241.2781 119.0928  1.02039588  3594
1 61991U 16053H   25279.82715703 -.00000041  00000-0  00000-0 0  9995
2 61991   1.0256 100.3675 0115773 241.2522 119.1123  1.02039654  3614
1 61991U 16053H   25279.82720119 -.00000041  00000-0  00000-0 0  9992
2 61991   1.0256 100.3822 0115746 241.2511 119.1139  1.02039528  3602
1 61991U 16053H   25280.80679899 -.00000005  00000-0  00000-0 0  9990
2 61991   1.0283 100.3055 0115869 241.2569 119.0405  1.02039349  3616
1 61991U 16053H   25280.80682553 -.00000005  00000-0  00000-0 0  9991
2 61991   1.0283 100.3141 0115855 241.2581 119.0397  1.02039258  3610
1 61991U 16053H   25281.78629001  .00000023  00000-0  00000-0 0  9997
2 61991   1.0311 100.2390 0115982 241.2602 118.9189  1.02039247  3628
1 61991U 16053H   25281.78631263  .00000023  00000-0  00000-0 0  9990
2 61991   1.0311 100.2463 0115975 241.2600 118.9194  1.02039207  3621
1 61991U 16053H   25282.76573115  .00000041  00000-0  00000-0 0  9990
2 61991   1.0340 100.1806 0116078 241.2744 118.7597  1.02039289  3633
1 61991U 16053H   25284.72476223  .00000048  00000-0  00000-0 0  9997
2 61991   1.0397 100.0754 0116279 241.2951 118.4933  1.02039744  3658
1 61991U 16053H   25284.72479985  .00000048  00000-0  00000-0 0  9995
2 61991   1.0395 100.0875 0116212 241.3200 118.4693  1.02039417  3655
1 61991U 16053H   25284.72483509  .00000048  00000-0  00000-0 0  9992
2 61991   1.0393 100.1012 0116176 241.3258 118.4645  1.02039651  3656
1 61991U 16053H   25285.70446876  .00000039  00000-0  00000-0 0  9997
2 61991   1.0424 100.0243 0116391 241.3051 118.4314  1.02040254  3661
1 61991U 16053H   25285.70448179  .00000039  00000-0  00000-0 0  9995
2 61991   1.0424 100.0285 0116383 241.3048 118.4318  1.02040188  3664
1 61991U 16053H   25285.70451248  .00000039  00000-0  00000-0 0  9996
2 61991   1.0423 100.0383 0116321 241.3232 118.4141  1.02039888  3668
1 61991U 16053H   25285.70453957  .00000039  00000-0  00000-0 0  9995
2 61991   1.0421 100.0495 0116289 241.3285 118.4094  1.02040099  3664
1 61991U 16053H   25286.68438688  .00000023  00000-0  00000-0 0  9990
2 61991   1.0450  99.9924 0116424 241.3358 118.4076  1.02040465  3679
1 61991U 16053H   25287.66436477  .00000002  00000-0  00000-0 0  9990
2 61991   1.0476  99.9394 0116584 241.3502 118.4463  1.02041184  3686
1 61991U 16053H   25287.66443514  .00000002  00000-0  00000-0 0  9990
2 61991   1.0475  99.9652 0116493 241.3564 118.4407  1.02041066  3686
1 61991U 16053H   25288.64443414 -.00000023  00000-0  00000-0 0  9992
2 61991   1.0501  99.8941 0116701 241.3758 118.5012  1.02041761  3699
1 61991U 16053H   25289.62450955 -.00000051  00000-0  00000-0 0  9990
2 61991   1.0525  99.8503 0116797 241.4130 118.5471  1.02042327  3709
1 61991U 16053H   25289.62452454 -.00000051  00000-0  00000-0 0  9996
2 61991   1.0525  99.8553 0116760 241.4131 118.5472  1.02042175  3707
1 61991U 16053H   25290.60451139 -.00000081  00000-0  00000-0 0  9998
2 61991   1.0548  99.8016 0116901 241.4573 118.5662  1.02042909  3710
1 61991U 16053H   25290.60453992 -.00000081  00000-0  00000-0 0  9997
2 61991   1.0549  99.8116 0116854 241.4529 118.5710  1.02042787  3718
1 61991U 16053H   25291.58441774 -.00000112  00000-0  00000-0 0  9995
2 61991   1.0571  99.7555 0116996 241.4948 118.5562  1.02043380  3727
1 61991U 16053H   25291.58445588 -.00000112  00000-0  00000-0 0  9992
2 61991   1.0572  99.7685 0116947 241.4935 118.5580  1.02043201  3726
1 61991U 16053H   25292.56420228 -.00000144  00000-0  00000-0 0  9990
2 61991   1.0594  99.7106 0117066 241.5362 118.4981  1.02043798  3732
1 61991U 16053H   25292.56422586 -.00000144  00000-0  00000-0 0  9999
2 61991   1.0595  99.7187 0117045 241.5295 118.5052  1.02043783  3738
1 61991U 16053H   25293.54387409 -.00000174  00000-0  00000-0 0  9995
2 61991   1.0616  99.6698 0117130 241.5685 118.4051  1.02044126  3747
1 61991U 16053H   25294.52343288 -.00000202  00000-0  00000-0 0  9993
2 61991   1.0638  99.6262 0117203 241.5954 118.2800  1.02044362  3751
1 61991U 16053H   25294.52345032 -.00000202  00000-0  00000-0 0  9992
2 61991   1.0639  99.6322 0117184 241.5992 118.2765  1.02044432  3757
1 61991U 16053H   25295.50293300 -.00000227  00000-0  00000-0 0  9998
2 61991   1.0661  99.5870 0117280 241.6153 118.1367  1.02044597  3766
1 61991U 16053H   25296.48238648 -.00000248  00000-0  00000-0 0  9993
2 61991   1.0682  99.5420 0117371 241.6343 117.9835  1.02044598  3771
1 61991U 16053H   25296.48239836 -.00000248  00000-0  00000-0 0  9993
2 61991   1.0683  99.5460 0117361 241.6384 117.9797  1.02044694  3774
1 61991U 16053H   25297.46186624 -.00000264  00000-0  00000-0 0  9996
2 61991   1.0704  99.5009 0117468 241.6500 117.8393  1.02044537  3783
1 61991U 16053H   25297.46187707 -.00000264  00000-0  00000-0 0  9999
2 61991   1.0705  99.5046 0117456 241.6554 117.8342  1.02044634  3783
1 61991U 16053H   25298.44141206 -.00000274  00000-0  00000-0 0  9993
2 61991   1.0727  99.4633 0117559 241.6722 117.7092  1.02044551  3799
1 61991U 16053H   25299.42102760 -.00000277  00000-0  00000-0 0  9997
2 61991   1.0750  99.4188 0117677 241.6795 117.6259  1.02044253  3806
1 61991U 16053H   25299.42109543 -.00000278  00000-0  00000-0 0  9994
2 61991   1.0750  99.4415 0117584 241.6922 117.6148  1.02044132  3801
1 61991U 16053H   25300.40081991 -.00000275  00000-0  00000-0 0  9998
2 61991   1.0773  99.3964 0117708 241.6969 117.5734  1.02043747  3815
1 61991U 16053H   25301.38059910 -.00000265  00000-0  00000-0 0  9991
2 61991   1.0797  99.3308 0117918 241.6788 117.5951  1.02043413  3827
1 61991U 16053H   25301.38066469 -.00000265  00000-0  00000-0 0  9998
2 61991   1.0796  99.3532 0117821 241.7004 117.5744  1.02043324  3821
1 61991U 16053H   25302.36055403 -.00000249  00000-0  00000-0 0  9995
2 61991   1.0822  99.2911 0117977 241.6999 117.6143  1.02043023  3836
1 61991U 16053H   25302.36057169 -.00000249  00000-0  00000-0 0  9996
2 61991   1.0821  99.2979 0117971 241.6994 117.6149  1.02043181  3839
1 61991U 16053H   25303.34057174 -.00000227  00000-0  00000-0 0  9997
2 61991   1.0847  99.2505 0118087 241.6929 117.6836  1.02042512  3840
1 61991U 16053H   25303.34062268 -.00000227  00000-0  00000-0 0  9997
2 61991   1.0845  99.2681 0118012 241.7114 117.6656  1.02042366  3845
1 61991U 16053H   25305.30056579 -.00000166  00000-0  00000-0 0  9995
2 61991   1.0898  99.1611 0118345 241.6506 117.8378  1.02041080  3865
1 61991U 16053H   25305.30063549 -.00000166  00000-0  00000-0 0  9990
2 61991   1.0896  99.1849 0118234 241.6920 117.7973  1.02041142  3862
1 61991U 16053H   25307.26014247 -.00000093  00000-0  00000-0 0  9997
2 61991   1.0951  99.0648 0118574 241.6593 117.7865  1.02040117  3886
1 61991U 16053H   25307.26016675 -.00000093  00000-0  00000-0 0  9994
2 61991   1.0950  99.0739 0118590 241.6518 117.7943  1.02040592  3885
1 61991U 16053H   25308.23970409 -.00000056  00000-0  00000-0 0  9995
2 61991   1.0979  99.0150 0118669 241.6874 117.6536  1.02040009  3896
1 61991U 16053H   25309.21910954 -.00000023  00000-0  00000-0 0  9997
2 61991   1.1008  98.9511 0118851 241.6965 117.4946  1.02039743  3901
1 61991U 16053H   25309.21913519 -.00000023  00000-0  00000-0 0  9997
2 61991   1.1007  98.9596 0118839 241.6941 117.4978  1.02039886  3906
